[{"OBJECT_NAME":"HULIANWANG DIGUI-97","OBJECT_ID":"2025-258B","EPOCH":"2026-03-07T03:29:22.758720","MEAN_MOTION":13.2933264,"ECCENTRICITY":4.37e-5,"INCLINATION":50.0014,"RA_OF_ASC_NODE":301.8732,"ARG_OF_PERICENTER":103.6017,"MEAN_ANOMALY":256.4904,"EPHEMERIS_TYPE":0,"CLASSIFICATION_TYPE":"U","NORAD_CAT_ID":66413,"ELEMENT_SET_NO":999,"REV_AT_EPOCH":1615,"BSTAR":0.00013569036,"MEAN_MOTION_DOT":-6.1e-7,"MEAN_MOTION_DDOT":0},{"OBJECT_NAME":"HULIANWANG DIGUI-98","OBJECT_ID":"2025-258C","EPOCH":"2026-03-07T03:17:18.623904","MEAN_MOTION":13.29334164,"ECCENTRICITY":5.054e-5,"INCLINATION":50.0051,"RA_OF_ASC_NODE":301.8721,"ARG_OF_PERICENTER":115.2395,"MEAN_ANOMALY":244.853,"EPHEMERIS_TYPE":0,"CLASSIFICATION_TYPE":"U","NORAD_CAT_ID":66414,"ELEMENT_SET_NO":999,"REV_AT_EPOCH":1615,"BSTAR":0.00011278813,"MEAN_MOTION_DOT":-7.2e-7,"MEAN_MOTION_DDOT":0},{"OBJECT_NAME":"HULIANWANG DIGUI-99","OBJECT_ID":"2025-258D","EPOCH":"2026-03-07T04:17:29.836320","MEAN_MOTION":13.29331647,"ECCENTRICITY":3.715e-5,"INCLINATION":50.0049,"RA_OF_ASC_NODE":301.423,"ARG_OF_PERICENTER":95.7025,"MEAN_ANOMALY":264.389,"EPHEMERIS_TYPE":0,"CLASSIFICATION_TYPE":"U","NORAD_CAT_ID":66415,"ELEMENT_SET_NO":999,"REV_AT_EPOCH":1615,"BSTAR":0.00012898738,"MEAN_MOTION_DOT":-6.4e-7,"MEAN_MOTION_DDOT":0},{"OBJECT_NAME":"HULIANWANG DIGUI-100","OBJECT_ID":"2025-258E","EPOCH":"2026-03-07T03:05:17.273760","MEAN_MOTION":13.29334686,"ECCENTRICITY":3.665e-5,"INCLINATION":50.0053,"RA_OF_ASC_NODE":301.8309,"ARG_OF_PERICENTER":96.8879,"MEAN_ANOMALY":263.2034,"EPHEMERIS_TYPE":0,"CLASSIFICATION_TYPE":"U","NORAD_CAT_ID":66416,"ELEMENT_SET_NO":999,"REV_AT_EPOCH":1616,"BSTAR":0.00012395302,"MEAN_MOTION_DOT":-6.7e-7,"MEAN_MOTION_DDOT":0},{"OBJECT_NAME":"HULIANWANG DIGUI-101","OBJECT_ID":"2025-258F","EPOCH":"2026-03-07T02:53:16.869696","MEAN_MOTION":13.29332802,"ECCENTRICITY":3.901e-5,"INCLINATION":50.0003,"RA_OF_ASC_NODE":301.7283,"ARG_OF_PERICENTER":91.4211,"MEAN_ANOMALY":268.6705,"EPHEMERIS_TYPE":0,"CLASSIFICATION_TYPE":"U","NORAD_CAT_ID":66417,"ELEMENT_SET_NO":999,"REV_AT_EPOCH":1616,"BSTAR":0.00010683022,"MEAN_MOTION_DOT":-7.4e-7,"MEAN_MOTION_DDOT":0},{"OBJECT_NAME":"HULIANWANG DIGUI-102","OBJECT_ID":"2025-258G","EPOCH":"2026-03-07T04:05:24.292320","MEAN_MOTION":13.29334703,"ECCENTRICITY":3.919e-5,"INCLINATION":50.0017,"RA_OF_ASC_NODE":301.3394,"ARG_OF_PERICENTER":107.3128,"MEAN_ANOMALY":252.7788,"EPHEMERIS_TYPE":0,"CLASSIFICATION_TYPE":"U","NORAD_CAT_ID":66418,"ELEMENT_SET_NO":999,"REV_AT_EPOCH":1616,"BSTAR":0.00011646426,"MEAN_MOTION_DOT":-7.0e-7,"MEAN_MOTION_DDOT":0},{"OBJECT_NAME":"HULIANWANG DIGUI-103","OBJECT_ID":"2025-258H","EPOCH":"2026-03-07T03:53:24.454176","MEAN_MOTION":13.29333771,"ECCENTRICITY":3.271e-5,"INCLINATION":50.001,"RA_OF_ASC_NODE":301.2879,"ARG_OF_PERICENTER":91.2712,"MEAN_ANOMALY":268.8198,"EPHEMERIS_TYPE":0,"CLASSIFICATION_TYPE":"U","NORAD_CAT_ID":66419,"ELEMENT_SET_NO":999,"REV_AT_EPOCH":1616,"BSTAR":0.00012992763,"MEAN_MOTION_DOT":-6.4e-7,"MEAN_MOTION_DDOT":0},{"OBJECT_NAME":"HULIANWANG DIGUI-104","OBJECT_ID":"2025-258J","EPOCH":"2026-03-07T03:41:24.071712","MEAN_MOTION":13.29333194,"ECCENTRICITY":4.309e-5,"INCLINATION":50.0027,"RA_OF_ASC_NODE":301.2672,"ARG_OF_PERICENTER":113.391,"MEAN_ANOMALY":246.7007,"EPHEMERIS_TYPE":0,"CLASSIFICATION_TYPE":"U","NORAD_CAT_ID":66420,"ELEMENT_SET_NO":999,"REV_AT_EPOCH":1615,"BSTAR":0.00013191976,"MEAN_MOTION_DOT":-6.3e-7,"MEAN_MOTION_DDOT":0},{"OBJECT_NAME":"HULIANWANG DIGUI-105","OBJECT_ID":"2025-285A","EPOCH":"2026-03-07T07:23:32.457120","MEAN_MOTION":13.29330752,"ECCENTRICITY":9.79e-6,"INCLINATION":50.0045,"RA_OF_ASC_NODE":151.6054,"ARG_OF_PERICENTER":305.0065,"MEAN_ANOMALY":55.0798,"EPHEMERIS_TYPE":0,"CLASSIFICATION_TYPE":"U","NORAD_CAT_ID":66915,"ELEMENT_SET_NO":999,"REV_AT_EPOCH":1250,"BSTAR":9.4162279e-5,"MEAN_MOTION_DOT":-8.0e-7,"MEAN_MOTION_DDOT":0},{"OBJECT_NAME":"HULIANWANG DIGUI-106","OBJECT_ID":"2025-285B","EPOCH":"2026-03-04T19:39:18.815328","MEAN_MOTION":13.29477796,"ECCENTRICITY":0.00070993,"INCLINATION":50.0043,"RA_OF_ASC_NODE":160.4766,"ARG_OF_PERICENTER":27.2323,"MEAN_ANOMALY":332.8921,"EPHEMERIS_TYPE":0,"CLASSIFICATION_TYPE":"U","NORAD_CAT_ID":66916,"ELEMENT_SET_NO":999,"REV_AT_EPOCH":1217,"BSTAR":-1.4099124,"MEAN_MOTION_DOT":-0.00628381,"MEAN_MOTION_DDOT":0},{"OBJECT_NAME":"HULIANWANG DIGUI-107","OBJECT_ID":"2025-285C","EPOCH":"2026-03-07T06:59:29.478624","MEAN_MOTION":13.29329918,"ECCENTRICITY":7.58e-6,"INCLINATION":50.0031,"RA_OF_ASC_NODE":151.5004,"ARG_OF_PERICENTER":309.4233,"MEAN_ANOMALY":50.6633,"EPHEMERIS_TYPE":0,"CLASSIFICATION_TYPE":"U","NORAD_CAT_ID":66917,"ELEMENT_SET_NO":999,"REV_AT_EPOCH":1250,"BSTAR":-0.00025461176,"MEAN_MOTION_DOT":-2.42e-6,"MEAN_MOTION_DDOT":0},{"OBJECT_NAME":"HULIANWANG DIGUI-108","OBJECT_ID":"2025-285D","EPOCH":"2026-03-07T06:47:26.986272","MEAN_MOTION":13.29330545,"ECCENTRICITY":6.17e-6,"INCLINATION":50.0052,"RA_OF_ASC_NODE":151.4742,"ARG_OF_PERICENTER":307.3745,"MEAN_ANOMALY":52.7121,"EPHEMERIS_TYPE":0,"CLASSIFICATION_TYPE":"U","NORAD_CAT_ID":66918,"ELEMENT_SET_NO":999,"REV_AT_EPOCH":1250,"BSTAR":-0.00021432778,"MEAN_MOTION_DOT":-2.24e-6,"MEAN_MOTION_DDOT":0},{"OBJECT_NAME":"HULIANWANG DIGUI-109","OBJECT_ID":"2025-285E","EPOCH":"2026-03-07T06:35:25.395936","MEAN_MOTION":13.29330269,"ECCENTRICITY":7.14e-6,"INCLINATION":50.0077,"RA_OF_ASC_NODE":151.4512,"ARG_OF_PERICENTER":306.7199,"MEAN_ANOMALY":53.3667,"EPHEMERIS_TYPE":0,"CLASSIFICATION_TYPE":"U","NORAD_CAT_ID":66919,"ELEMENT_SET_NO":999,"REV_AT_EPOCH":1251,"BSTAR":-0.00022318766,"MEAN_MOTION_DOT":-2.28e-6,"MEAN_MOTION_DDOT":0},{"OBJECT_NAME":"HULIANWANG DIGUI-110","OBJECT_ID":"2025-285F","EPOCH":"2026-03-07T06:23:24.216000","MEAN_MOTION":13.29330268,"ECCENTRICITY":6.93e-6,"INCLINATION":50.0099,"RA_OF_ASC_NODE":151.4339,"ARG_OF_PERICENTER":302.6014,"MEAN_ANOMALY":57.4851,"EPHEMERIS_TYPE":0,"CLASSIFICATION_TYPE":"U","NORAD_CAT_ID":66920,"ELEMENT_SET_NO":999,"REV_AT_EPOCH":1250,"BSTAR":7.7163969e-5,"MEAN_MOTION_DOT":-8.8e-7,"MEAN_MOTION_DDOT":0},{"OBJECT_NAME":"HULIANWANG DIGUI-111","OBJECT_ID":"2025-285G","EPOCH":"2026-03-07T06:11:22.359552","MEAN_MOTION":13.2932994,"ECCENTRICITY":8.31e-6,"INCLINATION":50.0126,"RA_OF_ASC_NODE":151.4042,"ARG_OF_PERICENTER":299.891,"MEAN_ANOMALY":60.1954,"EPHEMERIS_TYPE":0,"CLASSIFICATION_TYPE":"U","NORAD_CAT_ID":66921,"ELEMENT_SET_NO":999,"REV_AT_EPOCH":1250,"BSTAR":-0.00019131222,"MEAN_MOTION_DOT":-2.13e-6,"MEAN_MOTION_DDOT":0},{"OBJECT_NAME":"HULIANWANG DIGUI-112","OBJECT_ID":"2025-285H","EPOCH":"2026-03-07T05:59:20.602464","MEAN_MOTION":13.2933044,"ECCENTRICITY":9.98e-6,"INCLINATION":50.0089,"RA_OF_ASC_NODE":151.3325,"ARG_OF_PERICENTER":309.8451,"MEAN_ANOMALY":50.2412,"EPHEMERIS_TYPE":0,"CLASSIFICATION_TYPE":"U","NORAD_CAT_ID":66922,"ELEMENT_SET_NO":999,"REV_AT_EPOCH":1250,"BSTAR":-0.00019885103,"MEAN_MOTION_DOT":-2.16e-6,"MEAN_MOTION_DDOT":0}]
