HULIANWANG DIGUI-97     
1 66413U 25258B   26066.14540230 -.00000061  00000+0  13569-3 0  9995
2 66413  50.0014 301.8732 0000437 103.6017 256.4904 13.29332640 16154
HULIANWANG DIGUI-98     
1 66414U 25258C   26066.13702111 -.00000072  00000+0  11279-3 0  9991
2 66414  50.0051 301.8721 0000505 115.2395 244.8530 13.29334164 16157
HULIANWANG DIGUI-99     
1 66415U 25258D   26066.17881755 -.00000064  00000+0  12899-3 0  9998
2 66415  50.0049 301.4230 0000371  95.7025 264.3890 13.29331647 16158
HULIANWANG DIGUI-100    
1 66416U 25258E   26066.12867215 -.00000067  00000+0  12395-3 0  9993
2 66416  50.0053 301.8309 0000366  96.8879 263.2034 13.29334686 16163
HULIANWANG DIGUI-101    
1 66417U 25258F   26066.12033414 -.00000074  00000+0  10683-3 0  9996
2 66417  50.0003 301.7283 0000390  91.4211 268.6705 13.29332802 16169
HULIANWANG DIGUI-102    
1 66418U 25258G   26066.17042005 -.00000070  00000+0  11646-3 0  9994
2 66418  50.0017 301.3394 0000391 107.3128 252.7788 13.29334703 16166
HULIANWANG DIGUI-103    
1 66419U 25258H   26066.16208859 -.00000064  00000+0  12993-3 0  9994
2 66419  50.0010 301.2879 0000327  91.2712 268.8198 13.29333771 16163
HULIANWANG DIGUI-104    
1 66420U 25258J   26066.15375083 -.00000063  00000+0  13192-3 0  9990
2 66420  50.0027 301.2672 0000430 113.3910 246.7007 13.29333194 16157
HULIANWANG DIGUI-105    
1 66915U 25285A   26066.30801455 -.00000080  00000+0  94162-4 0  9999
2 66915  50.0045 151.6054 0000097 305.0065  55.0798 13.29330752 12507
HULIANWANG DIGUI-106    
1 66916U 25285B   26063.81896777 -.00628381  00000+0 -14099+1 0  9992
2 66916  50.0043 160.4766 0007099  27.2323 332.8921 13.29477796 12170
HULIANWANG DIGUI-107    
1 66917U 25285C   26066.29131341 -.00000242  00000+0 -25461-3 0  9995
2 66917  50.0031 151.5004 0000075 309.4233  50.6633 13.29329918 12500
HULIANWANG DIGUI-108    
1 66918U 25285D   26066.28295123 -.00000224  00000+0 -21433-3 0  9999
2 66918  50.0052 151.4742 0000061 307.3745  52.7121 13.29330545 12505
HULIANWANG DIGUI-109    
1 66919U 25285E   26066.27459949 -.00000228  00000+0 -22319-3 0  9995
2 66919  50.0077 151.4512 0000071 306.7199  53.3667 13.29330269 12511
HULIANWANG DIGUI-110    
1 66920U 25285F   26066.26625250 -.00000088  00000+0  77164-4 0  9998
2 66920  50.0099 151.4339 0000069 302.6014  57.4851 13.29330268 12500
HULIANWANG DIGUI-111    
1 66921U 25285G   26066.25789768 -.00000213  00000+0 -19131-3 0  9993
2 66921  50.0126 151.4042 0000083 299.8910  60.1954 13.29329940 12501
HULIANWANG DIGUI-112    
1 66922U 25285H   26066.24954401 -.00000216  00000+0 -19885-3 0  9990
2 66922  50.0089 151.3325 0000099 309.8451  50.2412 13.29330440 12508
